[{"OBJECT_NAME":"STARLINK-32589","OBJECT_ID":"2024-225W","EPOCH":"2026-03-09T15:32:49.448256","MEAN_MOTION":14.98330304,"ECCENTRICITY":0.00031987,"INCLINATION":70.0022,"RA_OF_ASC_NODE":164.7684,"ARG_OF_PERICENTER":267.4193,"MEAN_ANOMALY":92.66,"EPHEMERIS_TYPE":0,"CLASSIFICATION_TYPE":"U","NORAD_CAT_ID":62183,"ELEMENT_SET_NO":999,"REV_AT_EPOCH":6986,"BSTAR":0.00038869315,"MEAN_MOTION_DOT":4.548e-5,"MEAN_MOTION_DDOT":0},{"OBJECT_NAME":"COSMOS 2251 DEB","OBJECT_ID":"1993-036BDM","EPOCH":"2026-03-07T08:26:45.291840","MEAN_MOTION":15.06951358,"ECCENTRICITY":0.00416459,"INCLINATION":73.8833,"RA_OF_ASC_NODE":199.9445,"ARG_OF_PERICENTER":129.9164,"MEAN_ANOMALY":230.5698,"EPHEMERIS_TYPE":0,"CLASSIFICATION_TYPE":"U","NORAD_CAT_ID":36551,"ELEMENT_SET_NO":999,"REV_AT_EPOCH":68204,"BSTAR":0.0035281021,"MEAN_MOTION_DOT":0.00054188,"MEAN_MOTION_DDOT":0}]
